STARLINK-2327_new
1 17871C 21021M   21326.18385184  .00004087  00000-0  27381-3 0  3262
2 17871  53.0556 102.9158 0001427  90.6721 201.7519 15.06395641    14
STARLINK-2327_old
1 27871C 21021M   21325.11825097 -.00022604  00000-0 -15143-2 0  3254
2 27871  53.0548 107.6992 0001403  91.5042 178.9060 15.06425755    19
